{"type": "FeatureCollection", "features": [ {"type": "Feature", "properties": {"norad_id": 66583, "name": "STARLINK-35941", "group": "last-30-days", "lat": 42.70629645154981, "lon": -92.13850367043511, "alt_km": 350.226246451537, "timestamp": "2025-12-04T10:51:48.877006+00:00", "meta": {"OBJECT_NAME": "STARLINK-35941", "OBJECT_ID": "2025-268AC", "EPOCH": "2025-12-04T04:00:03.000096", "MEAN_MOTION": 15.72308566, "ECCENTRICITY": 0.0001633, "INCLINATION": 42.9988, "RA_OF_ASC_NODE": 171.6984, "ARG_OF_PERICENTER": 266.7147, "MEAN_ANOMALY": 9.1659, "EPHEMERIS_TYPE": 0, "CLASSIFICATION_TYPE": "U", "NORAD_CAT_ID": 66583, "ELEMENT_SET_NO": 999, "REV_AT_EPOCH": 329, "BSTAR": -0.015907, "MEAN_MOTION_DOT": -0.01926564, "MEAN_MOTION_DDOT": 0}, "tle": {"line1": "1 66583U 25268AC  25338.16670139 -.01926564  00000+0 -15907-1 0  9992", "line2": "2 66583  42.9988 171.6984 0001633 266.7147   9.1659 15.72308566  3299"}}, "geometry": {"type": "Point", "coordinates": [-92.13850367043511, 42.70629645154981]}}, {"type": "Feature", "properties": {"norad_id": 66584, "name": "STARLINK-35939", "group": "last-30-days", "lat": 42.49753839945702, "lon": -89.55210466131588, "alt_km": 350.24745231012184, "timestamp": "2025-12-04T10:51:48.877017+00:00", "meta": {"OBJECT_NAME": "STARLINK-35939", "OBJECT_ID": "2025-268AD", "EPOCH": "2025-12-04T04:00:03.000096", "MEAN_MOTION": 15.72309479, "ECCENTRICITY": 0.0001642, "INCLINATION": 42.9988, "RA_OF_ASC_NODE": 171.6941, "ARG_OF_PERICENTER": 263.8702, "MEAN_ANOMALY": 13.9276, "EPHEMERIS_TYPE": 0, "CLASSIFICATION_TYPE": "U", "NORAD_CAT_ID": 66584, "ELEMENT_SET_NO": 999, "REV_AT_EPOCH": 329, "BSTAR": -0.015921, "MEAN_MOTION_DOT": -0.0192809, "MEAN_MOTION_DDOT": 0}, "tle": {"line1": "1 66584U 25268AD  25338.16670139 -.01928090  00000+0 -15921-1 0  9995", "line2": "2 66584  42.9988 171.6941 0001642 263.8702  13.9276 15.72309479  3290"}}, "geometry": {"type": "Point", "coordinates": [-89.55210466131588, 42.49753839945702]}}, {"type": "Feature", "properties": {"norad_id": 66585, "name": "STARLINK-35963", "group": "last-30-days", "lat": 42.23121616503162, "lon": -86.98757851202512, "alt_km": 350.33666952467956, "timestamp": "2025-12-04T10:51:48.877031+00:00", "meta": {"OBJECT_NAME": "STARLINK-35963", "OBJECT_ID": "2025-268AE", "EPOCH": "2025-12-04T04:00:03.000096", "MEAN_MOTION": 15.7231666, "ECCENTRICITY": 0.0001714, "INCLINATION": 42.9989, "RA_OF_ASC_NODE": 171.6898, "ARG_OF_PERICENTER": 269.3966, "MEAN_ANOMALY": 10.3071, "EPHEMERIS_TYPE": 0, "CLASSIFICATION_TYPE": "U", "NORAD_CAT_ID": 66585, "ELEMENT_SET_NO": 999, "REV_AT_EPOCH": 329, "BSTAR": -0.015939, "MEAN_MOTION_DOT": -0.01930604, "MEAN_MOTION_DDOT": 0}, "tle": {"line1": "1 66585U 25268AE  25338.16670139 -.01930604  00000+0 -15939-1 0  9999", "line2": "2 66585  42.9989 171.6898 0001714 269.3966  10.3071 15.72316660  3290"}}, "geometry": {"type": "Point", "coordinates": [-86.98757851202512, 42.23121616503162]}}, {"type": "Feature", "properties": {"norad_id": 66586, "name": "TJS-21", "group": "last-30-days", "lat": -3.272665139508992, "lon": 169.14774322072915, "alt_km": 15252.20095805978, "timestamp": "2025-12-04T10:51:48.877045+00:00", "meta": {"OBJECT_NAME": "TJS-21", "OBJECT_ID": "2025-269A", "EPOCH": "2025-11-22T00:38:56.616288", "MEAN_MOTION": 2.0099221, "ECCENTRICITY": 0.75179873, "INCLINATION": 51.0366, "RA_OF_ASC_NODE": 174.7096, "ARG_OF_PERICENTER": 225.0489, "MEAN_ANOMALY": 41.6572, "EPHEMERIS_TYPE": 0, "CLASSIFICATION_TYPE": "U", "NORAD_CAT_ID": 66586, "ELEMENT_SET_NO": 999, "REV_AT_EPOCH": 2, "BSTAR": 0.00053569978, "MEAN_MOTION_DOT": 3.197e-05, "MEAN_MOTION_DDOT": 0}, "tle": {"line1": "1 66586U 25269A   25326.02704417  .00003197  00000+0  53570-3 0  9990", "line2": "2 66586  51.0366 174.7096 7517987 225.0489  41.6572  2.00992210    24"}}, "geometry": {"type": "Point", "coordinates": [169.14774322072915, -3.272665139508992]}}, {"type": "Feature", "properties": {"norad_id": 66587, "name": "CZ-3B R/B", "group": "last-30-days", "lat": 15.0523726797435, "lon": -176.05268206961503, "alt_km": 27855.593166815965, "timestamp": "2025-12-04T10:51:48.877063+00:00", "meta": {"OBJECT_NAME": "CZ-3B R/B", "OBJECT_ID": "2025-269B", "EPOCH": "2025-12-02T10:16:46.437600", "MEAN_MOTION": 2.0223182, "ECCENTRICITY": 0.75203475, "INCLINATION": 51.3575, "RA_OF_ASC_NODE": 172.0321, "ARG_OF_PERICENTER": 226.8728, "MEAN_ANOMALY": 39.3228, "EPHEMERIS_TYPE": 0, "CLASSIFICATION_TYPE": "U", "NORAD_CAT_ID": 66587, "ELEMENT_SET_NO": 999, "REV_AT_EPOCH": 24, "BSTAR": 0.0019543247, "MEAN_MOTION_DOT": 0.00047329, "MEAN_MOTION_DDOT": -2.45602e-07}, "tle": {"line1": "1 66587U 25269B   25336.42831525  .00047329 -24560-6  19543-2 0  9998", "line2": "2 66587  51.3575 172.0321 7520347 226.8728  39.3228  2.02231820   242"}}, "geometry": {"type": "Point", "coordinates": [-176.05268206961503, 15.0523726797435]}}, {"type": "Feature", "properties": {"norad_id": 66588, "name": "STARLINK-36076", "group": "last-30-days", "lat": -19.421071472742607, "lon": 84.1790997947211, "alt_km": 344.79765588275404, "timestamp": "2025-12-04T10:51:48.877075+00:00", "meta": {"OBJECT_NAME": "STARLINK-36076", "OBJECT_ID": "2025-270A", "EPOCH": "2025-12-04T02:22:17.126976", "MEAN_MOTION": 15.75495698, "ECCENTRICITY": 0.0003119, "INCLINATION": 42.9979, "RA_OF_ASC_NODE": 244.0933, "ARG_OF_PERICENTER": 251.2496, "MEAN_ANOMALY": 108.8035, "EPHEMERIS_TYPE": 0, "CLASSIFICATION_TYPE": "U", "NORAD_CAT_ID": 66588, "ELEMENT_SET_NO": 999, "REV_AT_EPOCH": 299, "BSTAR": -0.0038849, "MEAN_MOTION_DOT": -0.00570263, "MEAN_MOTION_DDOT": 0}, "tle": {"line1": "1 66588U 25270A   25338.09880934 -.00570263  00000+0 -38849-2 0  9999", "line2": "2 66588  42.9979 244.0933 0003119 251.2496 108.8035 15.75495698  2997"}}, "geometry": {"type": "Point", "coordinates": [84.1790997947211, -19.421071472742607]}}, {"type": "Feature", "properties": {"norad_id": 66589, "name": "STARLINK-35447", "group": "last-30-days", "lat": -21.760068923785326, "lon": 87.30182914966548, "alt_km": 346.18144634493, "timestamp": "2025-12-04T10:51:48.877086+00:00", "meta": {"OBJECT_NAME": "STARLINK-35447", "OBJECT_ID": "2025-270B", "EPOCH": "2025-12-04T02:21:19.594080", "MEAN_MOTION": 15.75458714, "ECCENTRICITY": 0.0001698, "INCLINATION": 42.998, "RA_OF_ASC_NODE": 244.0882, "ARG_OF_PERICENTER": 276.4997, "MEAN_ANOMALY": 83.5679, "EPHEMERIS_TYPE": 0, "CLASSIFICATION_TYPE": "U", "NORAD_CAT_ID": 66589, "ELEMENT_SET_NO": 999, "REV_AT_EPOCH": 310, "BSTAR": -0.003915, "MEAN_MOTION_DOT": -0.00573253, "MEAN_MOTION_DDOT": 0}, "tle": {"line1": "1 66589U 25270B   25338.09814345 -.00573253  00000+0 -39150-2 0  9991", "line2": "2 66589  42.9980 244.0882 0001698 276.4997  83.5679 15.75458714  3103"}}, "geometry": {"type": "Point", "coordinates": [87.30182914966548, -21.760068923785326]}}, {"type": "Feature", "properties": {"norad_id": 66590, "name": "STARLINK-35429", "group": "last-30-days", "lat": -20.603810514926074, "lon": 85.73739891427404, "alt_km": 345.84610222152423, "timestamp": "2025-12-04T10:51:48.877096+00:00", "meta": {"OBJECT_NAME": "STARLINK-35429", "OBJECT_ID": "2025-270C", "EPOCH": "2025-12-04T02:21:48.612384", "MEAN_MOTION": 15.75484697, "ECCENTRICITY": 0.0001797, "INCLINATION": 42.9978, "RA_OF_ASC_NODE": 244.0913, "ARG_OF_PERICENTER": 269.8771, "MEAN_ANOMALY": 90.1893, "EPHEMERIS_TYPE": 0, "CLASSIFICATION_TYPE": "U", "NORAD_CAT_ID": 66590, "ELEMENT_SET_NO": 999, "REV_AT_EPOCH": 310, "BSTAR": -0.0037906, "MEAN_MOTION_DOT": -0.00556781, "MEAN_MOTION_DDOT": 0}, "tle": {"line1": "1 66590U 25270C   25338.09847931 -.00556781  00000+0 -37906-2 0  9994", "line2": "2 66590  42.9978 244.0913 0001797 269.8771  90.1893 15.75484697  3104"}}, "geometry": {"type": "Point", "coordinates": [85.73739891427404, -20.603810514926074]}}, {"type": "Feature", "properties": {"norad_id": 66591, "name": "STARLINK-36058", "group": "last-30-days", "lat": -22.90683922882123, "lon": 88.9002271935528, "alt_km": 346.09420578553727, "timestamp": "2025-12-04T10:51:48.877105+00:00", "meta": {"OBJECT_NAME": "STARLINK-36058", "OBJECT_ID": "2025-270D", "EPOCH": "2025-12-04T02:20:50.002080", "MEAN_MOTION": 15.75426072, "ECCENTRICITY": 0.0002477, "INCLINATION": 42.9981, "RA_OF_ASC_NODE": 244.0858, "ARG_OF_PERICENTER": 274.5012, "MEAN_ANOMALY": 85.5575, "EPHEMERIS_TYPE": 0, "CLASSIFICATION_TYPE": "U", "NORAD_CAT_ID": 66591, "ELEMENT_SET_NO": 999, "REV_AT_EPOCH": 299, "BSTAR": -0.0040705, "MEAN_MOTION_DOT": -0.00593875, "MEAN_MOTION_DDOT": 0}, "tle": {"line1": "1 66591U 25270D   25338.09780095 -.00593875  00000+0 -40705-2 0  9998", "line2": "2 66591  42.9981 244.0858 0002477 274.5012  85.5575 15.75426072  2998"}}, "geometry": {"type": "Point", "coordinates": [88.9002271935528, -22.90683922882123]}}, {"type": "Feature", "properties": {"norad_id": 66592, "name": "STARLINK-36066", "group": "last-30-days", "lat": -24.015152067893936, "lon": 90.49104873860483, "alt_km": 345.90598909114215, "timestamp": "2025-12-04T10:51:48.877116+00:00", "meta": {"OBJECT_NAME": "STARLINK-36066", "OBJECT_ID": "2025-270E", "EPOCH": "2025-12-04T03:51:39.663072", "MEAN_MOTION": 15.75283675, "ECCENTRICITY": 0.0002199, "INCLINATION": 42.9992, "RA_OF_ASC_NODE": 243.6972, "ARG_OF_PERICENTER": 265.4989, "MEAN_ANOMALY": 94.5629, "EPHEMERIS_TYPE": 0, "CLASSIFICATION_TYPE": "U", "NORAD_CAT_ID": 66592, "ELEMENT_SET_NO": 999, "REV_AT_EPOCH": 290, "BSTAR": -0.0029277, "MEAN_MOTION_DOT": -0.00432621, "MEAN_MOTION_DDOT": 0}, "tle": {"line1": "1 66592U 25270E   25338.16087573 -.00432621  00000+0 -29277-2 0  9990", "line2": "2 66592  42.9992 243.6972 0002199 265.4989  94.5629 15.75283675  2907"}}, "geometry": {"type": "Point", "coordinates": [90.49104873860483, -24.015152067893936]}}]}